NOAA 15                 
1 25338U 98030A   20340.78091542  .00000033  00000-0  32465-4 0  9996
2 25338  98.7026   4.8392 0011302 121.8964 238.3317 14.26002277173648
DMSP 5D-3 F15 (USA 147) 
1 25991U 99067A   20340.80689422 -.00000056  00000-0 -52577-5 0  9999
2 25991  98.9927 313.6664 0009617 339.1902  78.8155 14.16468985 84706
METEOSAT-8 (MSG-1)      
1 27509U 02040B   20340.02654573  .00000150  00000-0  00000-0 0  9996
2 27509   7.0260  53.3618 0002300 200.9560 230.9434  1.00276127 67007
DMSP 5D-3 F16 (USA 172) 
1 28054U 03048A   20340.80766819 -.00000016  00000-0  15084-4 0  9998
2 28054  98.9325 319.4429 0008358  96.8652 358.0302 14.13648837884106
NOAA 18                 
1 28654U 05018A   20340.79326943  .00000096  00000-0  76237-4 0  9995
2 28654  99.0225  38.6379 0015190 107.9615 252.3214 14.12561727801199
METEOSAT-9 (MSG-2)      
1 28912U 05049B   20340.03883190  .00000033  00000-0  00000-0 0  9997
2 28912   4.7892  69.3794 0001461 258.4012 123.8979  1.00275002 54786
FORMOSAT-3 FM6          
1 29047U 06011A   20340.45258038  .00000089  00000-0  51041-4 0  9996
2 29047  71.9773 120.9650 0048773 128.1811 232.3734 14.28769616765756
FORMOSAT-3 FM1          
1 29048U 06011B   20340.26518960  .00000081  00000-0  48191-4 0  9993
2 29048  71.9677  32.0588 0041449  85.1604 275.4264 14.28736031768202
FORMOSAT-3 FM5          
1 29049U 06011C   20340.11683242  .00000135  00000-0  69358-4 0  9992
2 29049  72.0199 204.9791 0033270 112.3344 248.1325 14.28813298763972
FORMOSAT-3 FM3          
1 29050U 06011D   20340.42040815  .00000296  00000-0  72395-4 0  9994
2 29050  72.0155 332.9752 0049320  11.2905 348.9341 14.58983539781367
FORMOSAT-3 FM4          
1 29051U 06011E   20340.46279969  .00000102  00000-0  55544-4 0  9996
2 29051  72.0048 106.0014 0068860 347.6191  12.3250 14.28850641766619
FORMOSAT-3 FM2          
1 29052U 06011F   20340.03011037  .00000115  00000-0  61076-4 0  9991
2 29052  72.0329 181.5974 0038510  69.2524 291.2733 14.28955684764065
EWS-G1 (GOES 13)        
1 29155U 06018A   20340.56855007  .00000052  00000-0  00000+0 0  9998
2 29155   0.2573 109.2349 0008009 120.0148 111.7029  1.00270593 53255
METOP-A                 
1 29499U 06044A   20340.85394060  .00000017  00000-0  27059-4 0  9996
2 29499  98.5005  21.5746 0001620 108.2536  65.1381 14.21497851733235
DMSP 5D-3 F17 (USA 191) 
1 29522U 06050A   20340.79540744  .00000028  00000-0  37662-4 0  9998
2 29522  98.7940 354.5586 0010563  54.1473 306.0680 14.14027774726953
FENGYUN 3A              
1 32958U 08026A   20340.67083992  .00000014  00000-0  26446-4 0  9997
2 32958  98.4263 317.6969 0008357 193.8619 166.2329 14.18641135649105
FENGYUN 2E              
1 33463U 08066A   20340.01110826 -.00000183  00000-0  00000-0 0  9990
2 33463   4.6980  67.9687 0003548 296.8393 159.6638  1.00264049 43833
NOAA 19                 
1 33591U 09005A   20340.80980040  .00000043  00000-0  48709-4 0  9992
2 33591  99.1941 350.6115 0013360 318.5649  41.4507 14.12442306609582
GOES 14                 
1 35491U 09033A   20340.55268350 -.00000079  00000-0  00000+0 0  9996
2 35491   0.1886 261.1723 0013328 323.1371 305.2372  1.00271922 41906
METEOR-M 1              
1 35865U 09049A   20340.75289377  .00000024  00000-0  29623-4 0  9998
2 35865  98.4573 320.6598 0003315  64.1895 295.9625 14.22257755582264
DMSP 5D-3 F18 (USA 210) 
1 35951U 09057A   20340.86243478  .00000080  00000-0  65446-4 0  9992
2 35951  98.6611 325.1188 0010109 237.3296 122.6902 14.13316238574210
GOES 15                 
1 36411U 10008A   20340.62198095  .00000069  00000-0  00000+0 0  9997
2 36411   0.2880  99.7947 0001312 340.2140  90.7636  1.00265421 39410
COMS 1                  
1 36744U 10032A   20339.92019084 -.00000328  00000-0  00000-0 0  9994
2 36744   0.0487 132.5218 0001114 117.9269 283.2000  1.00271987 30833
FENGYUN 3B              
1 37214U 10059A   20340.86872985  .00000034  00000-0  40681-4 0  9994
2 37214  99.0651 325.4031 0017583 139.3415 332.0791 14.15967362521936
SUOMI NPP               
1 37849U 11061A   20340.82390483  .00000036  00000-0  37813-4 0  9991
2 37849  98.7185 276.2724 0001469  96.8639 340.4497 14.19562872471932
FENGYUN 2F              
1 38049U 12002A   20340.91714669 -.00000344  00000-0  00000+0 0  9992
2 38049   2.4567  82.8946 0002858   5.2471  69.5112  1.00277137 32646
METEOSAT-10 (MSG-3)     
1 38552U 12035B   20340.25535184  .00000074  00000-0  00000-0 0  9997
2 38552   1.2662 352.3912 0001349 224.5189 318.7015  1.00271311 30605
METOP-B                 
1 38771U 12049A   20340.83020726  .00000021  00000-0  29420-4 0  9993
2 38771  98.7084  37.6426 0001137 177.5938 329.0537 14.21489603426362
FENGYUN 3C              
1 39260U 13052A   20340.64546118  .00000047  00000-0  44797-4 0  9991
2 39260  98.5282  23.9567 0012247  84.4846 275.7723 14.15852691372847
METEOR-M 2              
1 40069U 14037A   20340.68586880  .00000012  00000-0  24725-4 0  9999
2 40069  98.4837  11.5869 0006344 136.1595 224.0084 14.20678712332520
HIMAWARI-8              
1 40267U 14060A   20340.20981459 -.00000260  00000-0  00000-0 0  9996
2 40267   0.0567 158.7328 0001340 116.5513  15.3794  1.00273914 22508
FENGYUN 2G              
1 40367U 14090A   20340.84768485 -.00000290  00000-0  00000+0 0  9994
2 40367   2.4888  92.2677 0002757 268.7510 119.1686  1.00271797 21790
METEOSAT-11 (MSG-4)     
1 40732U 15034A   20340.32531516  .00000011  00000-0  00000+0 0  9995
2 40732   0.4351 265.6323 0001635 275.7128  10.1614  1.00275917 19785
ELEKTRO-L 2             
1 41105U 15074A   20340.25064108 -.00000099  00000-0  00000-0 0  9992
2 41105   1.6080  94.9360 0002884 132.1535 283.2222  1.00272009 18260
HIMAWARI-9              
1 41836U 16064A   20339.92272069 -.00000259  00000-0  00000-0 0  9990
2 41836   0.0345  68.8159 0000794 214.9554 263.3697  1.00270989 14932
GOES 16                 
1 41866U 16071A   20340.81279042 -.00000234  00000-0  00000+0 0  9991
2 41866   0.0036 205.1652 0001480  82.2405   5.0959  1.00273830 14851
FENGYUN 4A              
1 41882U 16077A   20340.27436929 -.00000315  00000-0  00000-0 0  9995
2 41882   0.0714 292.2856 0005049 107.2604 238.3899  1.00271417 14728
CYGFM05                 
1 41884U 16078A   20340.65817599  .00001014  00000-0  55022-4 0  9990
2 41884  34.9568  76.3844 0015080 135.8259 224.3659 15.14780856220089
CYGFM04                 
1 41885U 16078B   20340.63620316  .00001073  00000-0  57334-4 0  9991
2 41885  34.9501  68.7869 0013561 147.9124 212.2415 15.15295097220148
CYGFM02                 
1 41886U 16078C   20339.97042081  .00001018  00000-0  54473-4 0  9994
2 41886  34.9592  74.7797 0014234 137.1142 223.0681 15.15289687220047
CYGFM01                 
1 41887U 16078D   20340.45042243  .00000957  00000-0  52302-4 0  9990
2 41887  34.9534  79.0775 0015534 134.4026 225.7959 15.14586355220029
CYGFM08                 
1 41888U 16078E   20339.67018574  .00001033  00000-0  55664-4 0  9993
2 41888  34.9504  78.9899 0014697 135.4228 224.7668 15.15004048219957
CYGFM06                 
1 41889U 16078F   20340.67458368  .00001011  00000-0  54136-4 0  9994
2 41889  34.9587  69.0922 0013249 143.6259 216.5355 15.15288574220147
CYGFM07                 
1 41890U 16078G   20340.65314817  .00001012  00000-0  54166-4 0  9998
2 41890  34.9525  68.2407 0013023 147.0912 213.0612 15.15286065220145
CYGFM03                 
1 41891U 16078H   20340.64919022  .00001017  00000-0  54457-4 0  9995
2 41891  34.9558  68.5623 0012490 145.7248 214.4272 15.15279132220143
FENGYUN 3D              
1 43010U 17072A   20340.90303557 -.00000009  00000-0  16365-4 0  9991
2 43010  98.7680 278.3996 0001140 357.6567   2.4603 14.19754976158526
NOAA 20                 
1 43013U 17073A   20340.77373189  .00000029  00000-0  34646-4 0  9991
2 43013  98.7350 276.1722 0000880  99.1317 260.9959 14.19544001157965
GOES 17                 
1 43226U 18022A   20340.44386681  .00000112  00000-0  00000+0 0  9992
2 43226   0.0464 247.0289 0000594  16.6502 193.6118  1.00271969 10187
FENGYUN 2H              
1 43491U 18050A   20340.24146635 -.00000114  00000-0  00000-0 0  9992
2 43491   0.2582 262.5537 0002672 245.3888  92.7340  1.00275485  9258
METOP-C                 
1 43689U 18087A   20340.76864747  .00000013  00000-0  26010-4 0  9999
2 43689  98.7154  37.9370 0002148 191.5281 168.5848 14.21484052107938
GEO-KOMPSAT-2A          
1 43823U 18100A   20340.85813389 -.00000329  00000-0  00000+0 0  9998
2 43823   0.0380 177.7174 0002444  87.3847 247.2250  1.00271588  7414
IOD-1 GEMS              
1 44385U 98067QK  20340.08969310  .00073180  00000-0  59377-3 0  9992
2 44385  51.6352 189.8573 0003882 211.4953 148.5812 15.70060316 81192
METEOR-M2 2             
1 44387U 19038A   20340.92099671 -.00000033  00000-0  44875-5 0  9999
2 44387  98.6429 297.7489 0002466  88.0378 272.1085 14.23683373 73931
